CCSDS_OMM_VERS = 2.0
CREATION_DATE  = 
ORIGINATOR     = 

OBJECT_NAME    = STARLINK-36523
OBJECT_ID      = 2026-008R
CENTER_NAME    = EARTH
REF_FRAME      = TEME
TIME_SYSTEM    = UTC
MEAN_ELEMENT_THEORY = SGP/SGP4

EPOCH          = 2026-02-02T06:00:02.000160
MEAN_MOTION    = 15.75048352
ECCENTRICITY   = .00014777
INCLINATION    = 42.9998
RA_OF_ASC_NODE = 48.5103
ARG_OF_PERICENTER = 268.2003
MEAN_ANOMALY   = 184.0757

EPHEMERIS_TYPE = 0
CLASSIFICATION_TYPE = U
NORAD_CAT_ID   = 67460
ELEMENT_SET_NO = 999
REV_AT_EPOCH   = 411
BSTAR          = -.35868406E-3
MEAN_MOTION_DOT = -.55237E-3
MEAN_MOTION_DDOT = 0

CCSDS_OMM_VERS = 2.0
CREATION_DATE  = 
ORIGINATOR     = 

OBJECT_NAME    = STARLINK-36522
OBJECT_ID      = 2026-008S
CENTER_NAME    = EARTH
REF_FRAME      = TEME
TIME_SYSTEM    = UTC
MEAN_ELEMENT_THEORY = SGP/SGP4

EPOCH          = 2026-02-02T06:00:02.000160
MEAN_MOTION    = 15.72329469
ECCENTRICITY   = .00012028
INCLINATION    = 42.9997
RA_OF_ASC_NODE = 48.5136
ARG_OF_PERICENTER = 278.9136
MEAN_ANOMALY   = 172.2761

EPHEMERIS_TYPE = 0
CLASSIFICATION_TYPE = U
NORAD_CAT_ID   = 67461
ELEMENT_SET_NO = 999
REV_AT_EPOCH   = 409
BSTAR          = -.17550938E-1
MEAN_MOTION_DOT = -.2102038E-1
MEAN_MOTION_DDOT = 0

CCSDS_OMM_VERS = 2.0
CREATION_DATE  = 
ORIGINATOR     = 

OBJECT_NAME    = STARLINK-36504
OBJECT_ID      = 2026-008T
CENTER_NAME    = EARTH
REF_FRAME      = TEME
TIME_SYSTEM    = UTC
MEAN_ELEMENT_THEORY = SGP/SGP4

EPOCH          = 2026-02-02T06:00:02.000160
MEAN_MOTION    = 15.75061262
ECCENTRICITY   = .00014875
INCLINATION    = 42.9999
RA_OF_ASC_NODE = 48.5014
ARG_OF_PERICENTER = 276.7019
MEAN_ANOMALY   = 179.4052

EPHEMERIS_TYPE = 0
CLASSIFICATION_TYPE = U
NORAD_CAT_ID   = 67462
ELEMENT_SET_NO = 999
REV_AT_EPOCH   = 411
BSTAR          = -.54730058E-3
MEAN_MOTION_DOT = -.83798E-3
MEAN_MOTION_DDOT = 0

CCSDS_OMM_VERS = 2.0
CREATION_DATE  = 
ORIGINATOR     = 

OBJECT_NAME    = STARLINK-36505
OBJECT_ID      = 2026-008U
CENTER_NAME    = EARTH
REF_FRAME      = TEME
TIME_SYSTEM    = UTC
MEAN_ELEMENT_THEORY = SGP/SGP4

EPOCH          = 2026-02-02T06:00:02.000160
MEAN_MOTION    = 15.75078301
ECCENTRICITY   = .00014095
INCLINATION    = 42.9999
RA_OF_ASC_NODE = 48.4967
ARG_OF_PERICENTER = 267.3878
MEAN_ANOMALY   = 190.6306

EPHEMERIS_TYPE = 0
CLASSIFICATION_TYPE = U
NORAD_CAT_ID   = 67463
ELEMENT_SET_NO = 999
REV_AT_EPOCH   = 409
BSTAR          = -.66855455E-3
MEAN_MOTION_DOT = -.102113E-2
MEAN_MOTION_DDOT = 0

CCSDS_OMM_VERS = 2.0
CREATION_DATE  = 
ORIGINATOR     = 

OBJECT_NAME    = STARLINK-36421
OBJECT_ID      = 2026-008V
CENTER_NAME    = EARTH
REF_FRAME      = TEME
TIME_SYSTEM    = UTC
MEAN_ELEMENT_THEORY = SGP/SGP4

EPOCH          = 2026-02-02T06:00:02.000160
MEAN_MOTION    = 15.72212064
ECCENTRICITY   = .00012191
INCLINATION    = 42.9999
RA_OF_ASC_NODE = 48.4998
ARG_OF_PERICENTER = 275.8948
MEAN_ANOMALY   = 180.7715

EPHEMERIS_TYPE = 0
CLASSIFICATION_TYPE = U
NORAD_CAT_ID   = 67464
ELEMENT_SET_NO = 999
REV_AT_EPOCH   = 409
BSTAR          = -.17723385E-1
MEAN_MOTION_DOT = -.2110737E-1
MEAN_MOTION_DDOT = 0

CCSDS_OMM_VERS = 2.0
CREATION_DATE  = 
ORIGINATOR     = 

OBJECT_NAME    = STARLINK-36437
OBJECT_ID      = 2026-008W
CENTER_NAME    = EARTH
REF_FRAME      = TEME
TIME_SYSTEM    = UTC
MEAN_ELEMENT_THEORY = SGP/SGP4

EPOCH          = 2026-02-02T06:00:02.000160
MEAN_MOTION    = 15.75072222
ECCENTRICITY   = .00014306
INCLINATION    = 42.9999
RA_OF_ASC_NODE = 48.4860
ARG_OF_PERICENTER = 256.3981
MEAN_ANOMALY   = 205.4558

EPHEMERIS_TYPE = 0
CLASSIFICATION_TYPE = U
NORAD_CAT_ID   = 67465
ELEMENT_SET_NO = 999
REV_AT_EPOCH   = 409
BSTAR          = -.6390541E-3
MEAN_MOTION_DOT = -.97654E-3
MEAN_MOTION_DDOT = 0

CCSDS_OMM_VERS = 2.0
CREATION_DATE  = 
ORIGINATOR     = 

OBJECT_NAME    = STARLINK-36520
OBJECT_ID      = 2026-008X
CENTER_NAME    = EARTH
REF_FRAME      = TEME
TIME_SYSTEM    = UTC
MEAN_ELEMENT_THEORY = SGP/SGP4

EPOCH          = 2026-02-02T06:00:02.000160
MEAN_MOTION    = 15.75159125
ECCENTRICITY   = .00010218
INCLINATION    = 42.9997
RA_OF_ASC_NODE = 48.4815
ARG_OF_PERICENTER = 253.8588
MEAN_ANOMALY   = 209.8956

EPHEMERIS_TYPE = 0
CLASSIFICATION_TYPE = U
NORAD_CAT_ID   = 67466
ELEMENT_SET_NO = 999
REV_AT_EPOCH   = 409
BSTAR          = -.23982069E-2
MEAN_MOTION_DOT = -.355605E-2
MEAN_MOTION_DDOT = 0

CCSDS_OMM_VERS = 2.0
CREATION_DATE  = 
ORIGINATOR     = 

OBJECT_NAME    = STARLINK-36425
OBJECT_ID      = 2026-008Y
CENTER_NAME    = EARTH
REF_FRAME      = TEME
TIME_SYSTEM    = UTC
MEAN_ELEMENT_THEORY = SGP/SGP4

EPOCH          = 2026-02-02T06:00:02.000160
MEAN_MOTION    = 15.68537193
ECCENTRICITY   = .00010359
INCLINATION    = 42.9996
RA_OF_ASC_NODE = 48.5185
ARG_OF_PERICENTER = 283.6444
MEAN_ANOMALY   = 165.0213

EPHEMERIS_TYPE = 0
CLASSIFICATION_TYPE = U
NORAD_CAT_ID   = 67467
ELEMENT_SET_NO = 999
REV_AT_EPOCH   = 409
BSTAR          = -.20581419E-1
MEAN_MOTION_DOT = -.2099333E-1
MEAN_MOTION_DDOT = 0

CCSDS_OMM_VERS = 2.0
CREATION_DATE  = 
ORIGINATOR     = 

OBJECT_NAME    = STARLINK-36414
OBJECT_ID      = 2026-008Z
CENTER_NAME    = EARTH
REF_FRAME      = TEME
TIME_SYSTEM    = UTC
MEAN_ELEMENT_THEORY = SGP/SGP4

EPOCH          = 2026-02-02T06:00:02.000160
MEAN_MOTION    = 15.74928028
ECCENTRICITY   = .0000865
INCLINATION    = 42.9999
RA_OF_ASC_NODE = 48.2051
ARG_OF_PERICENTER = 273.9621
MEAN_ANOMALY   = 299.9660

EPHEMERIS_TYPE = 0
CLASSIFICATION_TYPE = U
NORAD_CAT_ID   = 67468
ELEMENT_SET_NO = 999
REV_AT_EPOCH   = 409
BSTAR          = -.15883315E-1
MEAN_MOTION_DOT = -.2126727E-1
MEAN_MOTION_DDOT = 0

CCSDS_OMM_VERS = 2.0
CREATION_DATE  = 
ORIGINATOR     = 

OBJECT_NAME    = STARLINK-36441
OBJECT_ID      = 2026-008AA
CENTER_NAME    = EARTH
REF_FRAME      = TEME
TIME_SYSTEM    = UTC
MEAN_ELEMENT_THEORY = SGP/SGP4

EPOCH          = 2026-02-02T06:00:02.000160
MEAN_MOTION    = 15.71670203
ECCENTRICITY   = .00010792
INCLINATION    = 42.9998
RA_OF_ASC_NODE = 48.2050
ARG_OF_PERICENTER = 264.1490
MEAN_ANOMALY   = 309.0304

EPHEMERIS_TYPE = 0
CLASSIFICATION_TYPE = U
NORAD_CAT_ID   = 67469
ELEMENT_SET_NO = 999
REV_AT_EPOCH   = 409
BSTAR          = -.17966145E-1
MEAN_MOTION_DOT = -.2092861E-1
MEAN_MOTION_DDOT = 0

CCSDS_OMM_VERS = 2.0
CREATION_DATE  = 
ORIGINATOR     = 

OBJECT_NAME    = STARLINK-36454
OBJECT_ID      = 2026-008AB
CENTER_NAME    = EARTH
REF_FRAME      = TEME
TIME_SYSTEM    = UTC
MEAN_ELEMENT_THEORY = SGP/SGP4

EPOCH          = 2026-02-02T06:00:02.000160
MEAN_MOTION    = 15.73376133
ECCENTRICITY   = .00009287
INCLINATION    = 42.9996
RA_OF_ASC_NODE = 48.1912
ARG_OF_PERICENTER = 266.4186
MEAN_ANOMALY   = 312.1646

EPHEMERIS_TYPE = 0
CLASSIFICATION_TYPE = U
NORAD_CAT_ID   = 67470
ELEMENT_SET_NO = 999
REV_AT_EPOCH   = 409
BSTAR          = -.16577994E-1
MEAN_MOTION_DOT = -.2080385E-1
MEAN_MOTION_DDOT = 0

CCSDS_OMM_VERS = 2.0
CREATION_DATE  = 
ORIGINATOR     = 

OBJECT_NAME    = STARLINK-36334
OBJECT_ID      = 2026-008AC
CENTER_NAME    = EARTH
REF_FRAME      = TEME
TIME_SYSTEM    = UTC
MEAN_ELEMENT_THEORY = SGP/SGP4

EPOCH          = 2026-02-02T06:00:02.000160
MEAN_MOTION    = 15.75093041
ECCENTRICITY   = .00009593
INCLINATION    = 42.9996
RA_OF_ASC_NODE = 48.1989
ARG_OF_PERICENTER = 267.6753
MEAN_ANOMALY   = 308.1798

EPHEMERIS_TYPE = 0
CLASSIFICATION_TYPE = U
NORAD_CAT_ID   = 67471
ELEMENT_SET_NO = 999
REV_AT_EPOCH   = 409
BSTAR          = -.10051787E-2
MEAN_MOTION_DOT = -.152473E-2
MEAN_MOTION_DDOT = 0

