STARLINK-36523          
1 67460U 26008R   26033.25002315 -.00055237  00000+0 -35868-3 0  9997
2 67460  42.9998  48.5103 0001477 268.2003 184.0757 15.75048352  4115
STARLINK-36522          
1 67461U 26008S   26033.25002315 -.02102038  00000+0 -17551-1 0  9999
2 67461  42.9997  48.5136 0001202 278.9136 172.2761 15.72329469  4091
STARLINK-36504          
1 67462U 26008T   26033.25002315 -.00083798  00000+0 -54730-3 0  9991
2 67462  42.9999  48.5014 0001487 276.7019 179.4052 15.75061262  4112
STARLINK-36505          
1 67463U 26008U   26033.25002315 -.00102113  00000+0 -66855-3 0  9996
2 67463  42.9999  48.4967 0001409 267.3878 190.6306 15.75078301  4098
STARLINK-36421          
1 67464U 26008V   26033.25002315 -.02110737  00000+0 -17723-1 0  9998
2 67464  42.9999  48.4998 0001219 275.8948 180.7715 15.72212064  4091
STARLINK-36437          
1 67465U 26008W   26033.25002315 -.00097654  00000+0 -63905-3 0  9994
2 67465  42.9999  48.4860 0001430 256.3981 205.4558 15.75072222  4099
STARLINK-36520          
1 67466U 26008X   26033.25002315 -.00355605  00000+0 -23982-2 0  9998
2 67466  42.9997  48.4815 0001021 253.8588 209.8956 15.75159125  4097
STARLINK-36425          
1 67467U 26008Y   26033.25002315 -.02099333  00000+0 -20581-1 0  9995
2 67467  42.9996  48.5185 0001035 283.6444 165.0213 15.68537193  4091
STARLINK-36414          
1 67468U 26008Z   26033.25002315 -.02126727  00000+0 -15883-1 0  9993
2 67468  42.9999  48.2051 0000865 273.9621 299.9660 15.74928028  4094
STARLINK-36441          
1 67469U 26008AA  26033.25002315 -.02092861  00000+0 -17966-1 0  9999
2 67469  42.9998  48.2050 0001079 264.1490 309.0304 15.71670203  4091
STARLINK-36454          
1 67470U 26008AB  26033.25002315 -.02080385  00000+0 -16578-1 0  9997
2 67470  42.9996  48.1912 0000928 266.4186 312.1646 15.73376133  4097
STARLINK-36334          
1 67471U 26008AC  26033.25002315 -.00152473  00000+0 -10052-2 0  9996
2 67471  42.9996  48.1989 0000959 267.6753 308.1798 15.75093041  4098
